OBJECT_NAME,OBJECT_ID,EPOCH,MEAN_MOTION,ECCENTRICITY,INCLINATION,RA_OF_ASC_NODE,ARG_OF_PERICENTER,MEAN_ANOMALY,EPHEMERIS_TYPE,CLASSIFICATION_TYPE,NORAD_CAT_ID,ELEMENT_SET_NO,REV_AT_EPOCH,BSTAR,MEAN_MOTION_DOT,MEAN_MOTION_DDOT
HST,1990-037B,2026-07-20T17:09:26.816544,15.31093862,.00020838,28.4721,211.3592,156.9288,203.1402,0,U,20580,999,79371,.10306067E-3,.3416E-4,0
POLAR,1996-013A,2026-07-19T09:17:19.718592,1.29846046,.65026628,79.8986,226.6697,207.9705,92.0144,0,U,23802,999,14527,0,.162E-5,0
SWAS,1998-071A,2026-07-20T22:32:39.477984,15.09770750,.00075327,69.8945,140.4680,223.9787,136.0779,0,U,25560,999,50236,.13487081E-3,.2078E-4,0
CXO,1999-040B,2026-07-22T18:10:54.546528,0.37802015,.77765115,56.6521,115.7083,309.9609,0.5640,0,U,25867,999,1745,0,.588E-5,0
XMM-NEWTON,1999-066A,2026-07-20T06:14:17.625408,0.50127970,.46645709,64.3074,282.5600,64.3171,0.0365,0,U,25989,999,2316,0,-.7E-7,0
TERRA,1999-068A,2026-07-20T21:56:42.194400,14.61126471,.00036061,97.9437,250.1202,111.5815,300.9591,0,U,25994,999,41453,.51386552E-4,.208E-5,0
CLUSTER II-FM7 (SAMBA),2000-041A,2026-07-20T14:26:37.417344,0.44850593,.90917143,149.8020,56.9135,274.4939,359.4480,0,U,26410,999,2046,0,.10308E-3,-.3041523E-5
CLUSTER II-FM8 (TANGO),2000-045B,2026-07-18T22:53:06.823680,0.44421506,.90953904,150.0065,57.8200,275.2268,2.0610,0,U,26464,999,2045,0,.14903E-3,-.8973583E-5
ODIN,2001-007A,2026-07-20T20:10:16.042944,15.93013897,.00050088,97.3677,245.3160,158.6660,201.4824,0,U,26702,999,39472,.11627641E-2,.402916E-2,.64924218E-4
TIMED,2001-055B,2026-07-20T22:16:43.174272,14.95352412,.00023594,74.0671,167.0779,294.0707,66.0231,0,U,26998,999,33586,.69836177E-4,.731E-5,0
CORIOLIS,2003-001A,2026-07-20T22:47:46.542336,14.19952952,.00151159,98.7137,208.3204,113.8917,246.3845,0,U,27640,999,21901,.45838791E-4,.54E-6,0
SORCE,2003-004A,2026-07-20T22:36:57.173760,15.03860354,.00186834,39.9917,69.0657,292.9914,66.8909,0,U,27651,999,27698,.12629278E-3,.1622E-4,0
MOST,2003-031D,2026-07-20T22:21:01.971648,14.21328523,.00104204,98.7055,209.1874,149.2499,210.9290,0,U,27843,999,19550,.33960646E-4,.3E-6,0
SCISAT 1,2003-036A,2026-07-20T20:31:10.171776,14.81482955,.00070771,73.9302,104.4497,171.0836,189.0468,0,U,27858,999,23643,.4948566E-4,.351E-5,0
SWIFT,2004-047A,2026-07-20T11:32:14.744544,15.71579695,.00026426,20.5519,287.4489,83.1117,276.9630,0,U,28485,999,19210,.30445802E-3,.42132E-3,0
HINODE (SOLAR-B),2006-041A,2026-07-20T21:50:40.645824,14.68662680,.00175119,98.0548,217.5659,176.1800,183.9542,0,U,29479,999,5982,.73517273E-4,.379E-5,0
SHIJIAN-6 02A (SJ-6 02A),2006-046A,2026-07-20T22:14:44.298240,15.17282440,.00038999,97.6344,243.2513,50.1506,310.0070,0,U,29505,999,7738,.21872534E-3,.4288E-4,0
SHIJIAN-6 02B (SJ-6 02B),2006-046B,2026-07-21T00:03:10.512864,15.01442791,.00126648,97.7141,230.8510,315.2475,44.7727,0,U,29506,999,7581,.35142409E-4,.393E-5,0
FGRST (GLAST),2008-029A,2026-07-20T16:28:15.227040,15.24095088,.00080921,25.5829,331.8542,5.5378,354.5249,0,U,33053,999,80,.65848271E-4,.1982E-4,0
SDO,2010-005A,2026-07-19T05:47:12.515712,1.00277469,.00017212,34.7163,85.8540,43.5863,152.2121,0,U,36395,999,6038,0,-.94E-6,0
CRYOSAT 2,2010-013A,2026-07-20T22:06:42.048864,14.51899463,.00024735,92.0355,285.5025,98.8201,261.3287,0,U,36508,999,86297,.12610822E-4,.54E-6,0
X-SAT,2011-015C,2026-07-20T22:10:33.921408,14.25214502,.00128086,98.3539,177.3444,242.2055,117.7827,0,U,37389,999,79248,.24535228E-4,.16E-6,0
GCOM-W1 (SHIZUKU),2012-025A,2026-07-20T19:37:38.262144,14.57092982,.00012671,98.2024,141.8648,79.7574,340.0399,0,U,38337,999,75393,.58301014E-4,.217E-5,0
NUSTAR,2012-031A,2026-07-21T00:00:02.000160,15.09070705,.00086934,6.0248,140.4373,253.8610,56.1880,0,U,38358,999,130,.12873082E-3,.296E-4,0
NEOSSAT,2013-009D,2026-07-20T22:30:15.399936,14.35836874,.00117731,98.4195,21.1705,141.1518,219.0517,0,U,39089,999,70158,.40949906E-4,.76E-6,0
BRITE-AUSTRIA,2013-009F,2026-07-20T10:21:59.260896,14.36553717,.00110319,98.4013,20.0477,136.1688,224.0376,0,U,39091,999,70182,.39374091E-4,.73E-6,0
IRIS,2013-033A,2026-07-20T11:57:11.535552,14.85943068,.00236887,97.9318,40.6699,206.9802,153.0184,0,U,39197,999,70532,.64437521E-4,.509E-5,0
HISAKI (SPRINT-A),2013-049A,2026-07-20T22:23:44.222208,13.55547058,.01369595,29.7218,48.4412,290.3721,68.2186,0,U,39253,999,63600,.31793699E-4,.89E-6,0
CASSIOPE,2013-055A,2026-07-20T22:00:02.327040,15.27607811,.02818601,80.9140,25.6650,308.4488,49.1748,0,U,39265,999,67281,.18274976E-3,.17064E-3,-.5073E-6
STSAT-3,2013-066G,2026-07-20T22:28:42.055104,15.02908846,.00087772,97.6213,171.2802,281.8968,78.1273,0,U,39422,999,68927,.15501985E-3,.2021E-4,0
