HST                     
1 20580U 90037B   26201.71489371  .00003416  00000+0  10306-3 0  9991
2 20580  28.4721 211.3592 0002083 156.9288 203.1402 15.31093862793713
POLAR                   
1 23802U 96013A   26200.38703378  .00000162  00000+0  00000+0 0  9990
2 23802  79.8986 226.6697 6502662 207.9705  92.0144  1.29846046145278
SWAS                    
1 25560U 98071A   26201.93934581  .00002078  00000+0  13487-3 0  9998
2 25560  69.8945 140.4680 0007532 223.9787 136.0779 15.09770750502369
CXO                     
1 25867U 99040B   26203.75757577  .00000588  00000+0  00000+0 0  9992
2 25867  56.6521 115.7083 7776511 309.9609   0.5640  0.37802015 17458
XMM-NEWTON              
1 25989U 99066A   26201.25992622 -.00000007  00000+0  00000+0 0  9997
2 25989  64.3074 282.5600 4664570  64.3171   0.0365  0.50127970 23163
TERRA                   
1 25994U 99068A   26201.91437725  .00000208  00000+0  51387-4 0  9997
2 25994  97.9437 250.1202 0003606 111.5815 300.9591 14.61126471414536
CLUSTER II-FM7 (SAMBA)  
1 26410U 00041A   26201.60182196  .00010308 -30415-5  00000+0 0  9992
2 26410 149.8020  56.9135 9091714 274.4939 359.4480  0.44850593 20460
CLUSTER II-FM8 (TANGO)  
1 26464U 00045B   26199.95355120  .00014903 -89736-5  00000+0 0  9993
2 26464 150.0065  57.8200 9095390 275.2268   2.0610  0.44421506 20456
ODIN                    
1 26702U 01007A   26201.84046346  .00402916  64924-4  11628-2 0  9992
2 26702  97.3677 245.3160 0005008 158.6660 201.4824 15.93013897394726
TIMED                   
1 26998U 01055B   26201.92827748  .00000731  00000+0  69836-4 0  9999
2 26998  74.0671 167.0779 0002359 294.0707  66.0231 14.95352412335865
CORIOLIS                
1 27640U 03001A   26201.94984424  .00000054  00000+0  45839-4 0  9999
2 27640  98.7137 208.3204 0015115 113.8917 246.3845 14.19952952219010
SORCE                   
1 27651U 03004A   26201.94232840  .00001622  00000+0  12629-3 0  9994
2 27651  39.9917  69.0657 0018683 292.9914  66.8909 15.03860354276981
MOST                    
1 27843U 03031D   26201.93127282  .00000030  00000+0  33961-4 0  9994
2 27843  98.7055 209.1874 0010420 149.2499 210.9290 14.21328523195500
SCISAT 1                
1 27858U 03036A   26201.85497884  .00000351  00000+0  49486-4 0  9999
2 27858  73.9302 104.4497 0007077 171.0836 189.0468 14.81482955236433
SWIFT                   
1 28485U 04047A   26201.48072621  .00042132  00000+0  30446-3 0  9994
2 28485  20.5519 287.4489 0002642  83.1117 276.9630 15.71579695192109
HINODE (SOLAR-B)        
1 29479U 06041A   26201.91019266  .00000379  00000+0  73517-4 0  9992
2 29479  98.0548 217.5659 0017511 176.1800 183.9542 14.68662680 59823
SHIJIAN-6 02A (SJ-6 02A)
1 29505U 06046A   26201.92690160  .00004288  00000+0  21873-3 0  9996
2 29505  97.6344 243.2513 0003899  50.1506 310.0070 15.17282440 77382
SHIJIAN-6 02B (SJ-6 02B)
1 29506U 06046B   26202.00220501  .00000393  00000+0  35142-4 0  9993
2 29506  97.7141 230.8510 0012664 315.2475  44.7727 15.01442791 75814
FGRST (GLAST)           
1 33053U 08029A   26201.68628735  .00001982  00000+0  65848-4 0  9993
2 33053  25.5829 331.8542 0008092   5.5378 354.5249 15.24095088   802
SDO                     
1 36395U 10005A   26200.24111708 -.00000094  00000+0  00000+0 0  9998
2 36395  34.7163  85.8540 0001721  43.5863 152.2121  1.00277469 60389
CRYOSAT 2               
1 36508U 10013A   26201.92132001  .00000054  00000+0  12611-4 0  9999
2 36508  92.0355 285.5025 0002473  98.8201 261.3287 14.51899463862970
X-SAT                   
1 37389U 11015C   26201.92400372  .00000016  00000+0  24535-4 0  9995
2 37389  98.3539 177.3444 0012808 242.2055 117.7827 14.25214502792487
GCOM-W1 (SHIZUKU)       
1 38337U 12025A   26201.81780396  .00000217  00000+0  58301-4 0  9997
2 38337  98.2024 141.8648 0001267  79.7574 340.0399 14.57092982753930
NUSTAR                  
1 38358U 12031A   26202.00002315  .00002960  00000+0  12873-3 0  9997
2 38358   6.0248 140.4373 0008693 253.8610  56.1880 15.09070705  1308
NEOSSAT                 
1 39089U 13009D   26201.93767824  .00000076  00000+0  40950-4 0  9993
2 39089  98.4195  21.1705 0011773 141.1518 219.0517 14.35836874701588
BRITE-AUSTRIA           
1 39091U 13009F   26201.43193589  .00000073  00000+0  39374-4 0  9997
2 39091  98.4013  20.0477 0011031 136.1688 224.0376 14.36553717701822
IRIS                    
1 39197U 13033A   26201.49805018  .00000509  00000+0  64438-4 0  9997
2 39197  97.9318  40.6699 0023688 206.9802 153.0184 14.85943068705323
HISAKI (SPRINT-A)       
1 39253U 13049A   26201.93315072  .00000089  00000+0  31794-4 0  9994
2 39253  29.7218  48.4412 0136959 290.3721  68.2186 13.55547058636002
CASSIOPE                
1 39265U 13055A   26201.91669360  .00017064 -50730-6  18275-3 0  9996
2 39265  80.9140  25.6650 0281860 308.4488  49.1748 15.27607811672818
STSAT-3                 
1 39422U 13066G   26201.93659786  .00002021  00000+0  15502-3 0  9990
2 39422  97.6213 171.2802 0008777 281.8968  78.1273 15.02908846689275
